start=new Date('2023-02-11T00:00:00.000Z').valueOf();
sats=[{"BSTAR":"0.00653160000000","SEMIMAJOR_AXIS":"6733.158","OBJECT_NAME":"STARLINK-5299","CLASSIFICATION_TYPE":"U","APOAPSIS":"360.333","LAUNCH_DATE":"2023-01-19","PERIAPSIS":"349.713","EPHEMERIS_TYPE":"0","OBJECT_ID":"2023-010J","EPOCH":"2023-02-10T10:00:11.324736","MEAN_MOTION":"15.71355889","DECAY_DATE":null,"REV_AT_EPOCH":"426","COUNTRY_CODE":"US","CENTER_NAME":"EARTH","PERIOD":"91.641","RCS_SIZE":"LARGE","MEAN_ANOMALY":"30.8340","SITE":"AFWTR","INCLINATION":"70.0004","OBJECT_TYPE":"PAYLOAD","GP_ID":"225073164","ECCENTRICITY":"0.00078870","MEAN_MOTION_DOT":"0.00915326","TLE_LINE1":"1 55277U 23010J   23041.41679774  .00915326  00000-0  65316-2 0  9996","MEAN_ELEMENT_THEORY":"SGP4","TLE_LINE2":"2 55277  70.0004   7.3942 0007887 329.2393  30.8340 15.71355889  4267","MEAN_MOTION_DDOT":"0.0000000000000","ELEMENT_SET_NO":"999","FILE":"3785071","REF_FRAME":"TEME","NORAD_CAT_ID":"55277","TIME_SYSTEM":"UTC","RA_OF_ASC_NODE":"7.3942","ARG_OF_PERICENTER":"329.2393"},{"RA_OF_ASC_NODE":"7.3931","ARG_OF_PERICENTER":"279.2863","FILE":"3785071","REF_FRAME":"TEME","NORAD_CAT_ID":"55278","TIME_SYSTEM":"UTC","ELEMENT_SET_NO":"999","MEAN_MOTION_DDOT":"0.0000000000000","TLE_LINE2":"2 55278  70.0005   7.3931 0002602 279.2863  80.8039 15.69947445  4254","TLE_LINE1":"1 55278U 23010K   23041.41660439  .00021442  00000-0  17948-3 0  9991","MEAN_ELEMENT_THEORY":"SGP4","MEAN_MOTION_DOT":"0.00021442","ECCENTRICITY":"0.00026020","OBJECT_TYPE":"PAYLOAD","GP_ID":"225074415","INCLINATION":"70.0005","SITE":"AFWTR","PERIOD":"91.723","RCS_SIZE":"LARGE","MEAN_ANOMALY":"80.8039","REV_AT_EPOCH":"425","COUNTRY_CODE":"US","CENTER_NAME":"EARTH","DECAY_DATE":null,"MEAN_MOTION":"15.69947445","EPOCH":"2023-02-10T09:59:54.619296","EPHEMERIS_TYPE":"0","OBJECT_ID":"2023-010K","PERIAPSIS":"357.296","APOAPSIS":"360.802","LAUNCH_DATE":"2023-01-19","CLASSIFICATION_TYPE":"U","OBJECT_NAME":"STARLINK-5289","BSTAR":"0.00017948000000","SEMIMAJOR_AXIS":"6737.184"},{"TLE_LINE2":"2 55279  70.0006   7.3950 0003096 275.6145  84.4697 15.69952084  4264","MEAN_MOTION_DDOT":"0.0000000000000","ELEMENT_SET_NO":"999","RA_OF_ASC_NODE":"7.3950","ARG_OF_PERICENTER":"275.6145","FILE":"3785071","REF_FRAME":"TEME","NORAD_CAT_ID":"55279","TIME_SYSTEM":"UTC","ECCENTRICITY":"0.00030960","TLE_LINE1":"1 55279U 23010L   23041.41702132  .00028661  00000-0  23905-3 0  9999","MEAN_ELEMENT_THEORY":"SGP4","MEAN_MOTION_DOT":"0.00028661","COUNTRY_CODE":"US","REV_AT_EPOCH":"426","CENTER_NAME":"EARTH","OBJECT_TYPE":"PAYLOAD","GP_ID":"225074662","RCS_SIZE":"LARGE","MEAN_ANOMALY":"84.4697","PERIOD":"91.723","SITE":"AFWTR","INCLINATION":"70.0006","APOAPSIS":"361.122","LAUNCH_DATE":"2023-01-19","PERIAPSIS":"356.950","SEMIMAJOR_AXIS":"6737.171","BSTAR":"0.00023905000000","CLASSIFICATION_TYPE":"U","OBJECT_NAME":"STARLINK-5323","MEAN_MOTION":"15.69952084","EPOCH":"2023-02-10T10:00:30.642048","DECAY_DATE":null,"EPHEMERIS_TYPE":"0","OBJECT_ID":"2023-010L"},{"LAUNCH_DATE":"2023-01-19","APOAPSIS":"361.126","PERIAPSIS":"356.870","SEMIMAJOR_AXIS":"6737.133","BSTAR":"0.00037673000000","CLASSIFICATION_TYPE":"U","OBJECT_NAME":"STARLINK-5331","MEAN_MOTION":"15.69965429","EPOCH":"2023-02-10T09:59:45.509280","DECAY_DATE":null,"OBJECT_ID":"2023-010M","EPHEMERIS_TYPE":"0","CENTER_NAME":"EARTH","REV_AT_EPOCH":"425","COUNTRY_CODE":"US","GP_ID":"225072913","OBJECT_TYPE":"PAYLOAD","RCS_SIZE":"LARGE","PERIOD":"91.722","MEAN_ANOMALY":"97.3340","SITE":"AFWTR","INCLINATION":"70.0008","ECCENTRICITY":"0.00031590","TLE_LINE1":"1 55280U 23010M   23041.41649895  .00045408  00000-0  37673-3 0  9992","MEAN_ELEMENT_THEORY":"SGP4","MEAN_MOTION_DOT":"0.00045408","TLE_LINE2":"2 55280  70.0008   7.3917 0003159 262.7496  97.3340 15.69965429  4251","MEAN_MOTION_DDOT":"0.0000000000000","ELEMENT_SET_NO":"999","ARG_OF_PERICENTER":"262.7496","RA_OF_ASC_NODE":"7.3917","NORAD_CAT_ID":"55280","TIME_SYSTEM":"UTC","FILE":"3785071","REF_FRAME":"TEME"},{"MEAN_ELEMENT_THEORY":"SGP4","TLE_LINE1":"1 55281U 23010N   23041.41681471  .00046374  00000-0  38468-3 0  9995","MEAN_MOTION_DOT":"0.00046374","ECCENTRICITY":"0.00030100","RA_OF_ASC_NODE":"7.3938","ARG_OF_PERICENTER":"256.6438","FILE":"3785071","REF_FRAME":"TEME","NORAD_CAT_ID":"55281","TIME_SYSTEM":"UTC","TLE_LINE2":"2 55281  70.0008   7.3938 0003010 256.6438 103.4423 15.69965116  4253","MEAN_MOTION_DDOT":"0.0000000000000","ELEMENT_SET_NO":"999","EPOCH":"2023-02-10T10:00:12.790944","MEAN_MOTION":"15.69965116","DECAY_DATE":null,"EPHEMERIS_TYPE":"0","OBJECT_ID":"2023-010N","APOAPSIS":"361.027","LAUNCH_DATE":"2023-01-19","PERIAPSIS":"356.971","SEMIMAJOR_AXIS":"6737.134","BSTAR":"0.00038468000000","OBJECT_NAME":"STARLINK-5298","CLASSIFICATION_TYPE":"U","OBJECT_TYPE":"PAYLOAD","GP_ID":"225073664","PERIOD":"91.722","RCS_SIZE":"MEDIUM","MEAN_ANOMALY":"103.4423","SITE":"AFWTR","INCLINATION":"70.0008","REV_AT_EPOCH":"425","COUNTRY_CODE":"US","CENTER_NAME":"EARTH"},{"NORAD_CAT_ID":"55282","TIME_SYSTEM":"UTC","FILE":"3785071","REF_FRAME":"TEME","ARG_OF_PERICENTER":"271.3736","RA_OF_ASC_NODE":"7.3914","TLE_LINE2":"2 55282  70.0005   7.3914 0003144 271.3736  88.7099 15.69955398  4253","ELEMENT_SET_NO":"999","MEAN_MOTION_DDOT":"0.0000000000000","MEAN_MOTION_DOT":"0.00023940","TLE_LINE1":"1 55282U 23010P   23041.41618058  .00023940  00000-0  20005-3 0  9999","MEAN_ELEMENT_THEORY":"SGP4","ECCENTRICITY":"0.00031440","RCS_SIZE":"LARGE","MEAN_ANOMALY":"88.7099","PERIOD":"91.722","INCLINATION":"70.0005","SITE":"AFWTR","GP_ID":"225073916","OBJECT_TYPE":"PAYLOAD","CENTER_NAME":"EARTH","REV_AT_EPOCH":"425","COUNTRY_CODE":"US","OBJECT_ID":"2023-010P","EPHEMERIS_TYPE":"0","EPOCH":"2023-02-10T09:59:18.002112","MEAN_MOTION":"15.69955398","DECAY_DATE":null,"BSTAR":"0.00020005000000","SEMIMAJOR_AXIS":"6737.162","CLASSIFICATION_TYPE":"U","OBJECT_NAME":"STARLINK-5330","LAUNCH_DATE":"2023-01-19","APOAPSIS":"361.145","PERIAPSIS":"356.908"},{"ECCENTRICITY":"0.00032550","TLE_LINE1":"1 55283U 23010Q   23041.60785289  .00026128  00000-0  21809-3 0  9996","MEAN_ELEMENT_THEORY":"SGP4","MEAN_MOTION_DOT":"0.00026128","ELEMENT_SET_NO":"999","MEAN_MOTION_DDOT":"0.0000000000000","TLE_LINE2":"2 55283  70.0007   6.8560 0003255 270.2494  89.8329 15.69957094  4285","ARG_OF_PERICENTER":"270.2494","RA_OF_ASC_NODE":"6.8560","NORAD_CAT_ID":"55283","TIME_SYSTEM":"UTC","FILE":"3785071","REF_FRAME":"TEME","PERIAPSIS":"356.829","LAUNCH_DATE":"2023-01-19","APOAPSIS":"361.215","OBJECT_NAME":"STARLINK-5317","CLASSIFICATION_TYPE":"U","SEMIMAJOR_AXIS":"6737.157","BSTAR":"0.00021809000000","DECAY_DATE":null,"MEAN_MOTION":"15.69957094","EPOCH":"2023-02-10T14:35:18.489696","OBJECT_ID":"2023-010Q","EPHEMERIS_TYPE":"0","CENTER_NAME":"EARTH","REV_AT_EPOCH":"428","COUNTRY_CODE":"US","GP_ID":"225074163","OBJECT_TYPE":"PAYLOAD","SITE":"AFWTR","INCLINATION":"70.0007","RCS_SIZE":"MEDIUM","MEAN_ANOMALY":"89.8329","PERIOD":"91.722"},{"OBJECT_ID":"2023-010R","EPHEMERIS_TYPE":"0","DECAY_DATE":null,"MEAN_MOTION":"15.69941307","EPOCH":"2023-02-10T09:58:59.834784","CLASSIFICATION_TYPE":"U","OBJECT_NAME":"STARLINK-5337","BSTAR":"0.00019303000000","SEMIMAJOR_AXIS":"6737.202","PERIAPSIS":"357.020","APOAPSIS":"361.114","LAUNCH_DATE":"2023-01-19","SITE":"AFWTR","INCLINATION":"70.0004","PERIOD":"91.723","RCS_SIZE":"LARGE","MEAN_ANOMALY":"86.3177","GP_ID":"225073414","OBJECT_TYPE":"PAYLOAD","CENTER_NAME":"EARTH","COUNTRY_CODE":"US","REV_AT_EPOCH":"425","MEAN_MOTION_DOT":"0.00023077","MEAN_ELEMENT_THEORY":"SGP4","TLE_LINE1":"1 55284U 23010R   23041.41597031  .00023077  00000-0  19303-3 0  9998","ECCENTRICITY":"0.00030380","TIME_SYSTEM":"UTC","NORAD_CAT_ID":"55284","FILE":"3785071","REF_FRAME":"TEME","ARG_OF_PERICENTER":"273.7672","RA_OF_ASC_NODE":"7.3901","MEAN_MOTION_DDOT":"0.0000000000000","ELEMENT_SET_NO":"999","TLE_LINE2":"2 55284  70.0004   7.3901 0003038 273.7672  86.3177 15.69941307  4253"},{"RA_OF_ASC_NODE":"5.8425","ARG_OF_PERICENTER":"253.0388","FILE":"3785071","REF_FRAME":"TEME","TIME_SYSTEM":"UTC","NORAD_CAT_ID":"55285","TLE_LINE2":"2 55285  70.0007   5.8425 0003456 253.0388 174.1537 15.69858054  1305","ELEMENT_SET_NO":"999","MEAN_MOTION_DDOT":"0.0000000000000","TLE_LINE1":"1 55285U 23010S   23041.91667824  .00101557  00000-0  83846-3 0  9995","MEAN_ELEMENT_THEORY":"SGP4","MEAN_MOTION_DOT":"0.00101557","ECCENTRICITY":"0.00034560","OBJECT_TYPE":"PAYLOAD","GP_ID":"225073165","RCS_SIZE":"LARGE","MEAN_ANOMALY":"174.1537","PERIOD":"91.728","INCLINATION":"70.0007","SITE":"AFWTR","REV_AT_EPOCH":"130","COUNTRY_CODE":"US","CENTER_NAME":"EARTH","EPOCH":"2023-02-10T22:00:00.999936","MEAN_MOTION":"15.69858054","DECAY_DATE":null,"EPHEMERIS_TYPE":"0","OBJECT_ID":"2023-010S","APOAPSIS":"361.634","LAUNCH_DATE":"2023-01-19","PERIAPSIS":"356.977","SEMIMAJOR_AXIS":"6737.440","BSTAR":"0.00083846000000","OBJECT_NAME":"STARLINK-5332","CLASSIFICATION_TYPE":"U"},{"ECCENTRICITY":"0.00034120","MEAN_MOTION_DOT":"0.00093293","TLE_LINE1":"1 55286U 23010T   23041.41607440  .00093293  00000-0  76677-3 0  9990","MEAN_ELEMENT_THEORY":"SGP4","ELEMENT_SET_NO":"999","MEAN_MOTION_DDOT":"0.0000000000000","TLE_LINE2":"2 55286  69.9999   7.3893 0003412 264.0551  96.0256 15.69995715  4258","NORAD_CAT_ID":"55286","TIME_SYSTEM":"UTC","FILE":"3785071","REF_FRAME":"TEME","ARG_OF_PERICENTER":"264.0551","RA_OF_ASC_NODE":"7.3893","OBJECT_NAME":"STARLINK-5338","CLASSIFICATION_TYPE":"U","BSTAR":"0.00076677000000","SEMIMAJOR_AXIS":"6737.046","PERIAPSIS":"356.613","LAUNCH_DATE":"2023-01-19","APOAPSIS":"361.210","OBJECT_ID":"2023-010T","EPHEMERIS_TYPE":"0","DECAY_DATE":null,"MEAN_MOTION":"15.69995715","EPOCH":"2023-02-10T09:59:08.828160","CENTER_NAME":"EARTH","REV_AT_EPOCH":"425","COUNTRY_CODE":"US","INCLINATION":"69.9999","SITE":"AFWTR","PERIOD":"91.720","RCS_SIZE":"LARGE","MEAN_ANOMALY":"96.0256","GP_ID":"225074416","OBJECT_TYPE":"PAYLOAD"}];
